[{"OBJECT_NAME":"YAOGAN-29","OBJECT_ID":"2015-069A","EPOCH":"2026-03-09T23:55:31.753056","MEAN_MOTION":14.82995409,"ECCENTRICITY":0.00019113,"INCLINATION":98.0143,"RA_OF_ASC_NODE":97.4271,"ARG_OF_PERICENTER":36.221,"MEAN_ANOMALY":323.9132,"EPHEMERIS_TYPE":0,"CLASSIFICATION_TYPE":"U","NORAD_CAT_ID":41038,"ELEMENT_SET_NO":999,"REV_AT_EPOCH":55592,"BSTAR":3.1956053e-5,"MEAN_MOTION_DOT":2.05e-6,"MEAN_MOTION_DDOT":0},{"OBJECT_NAME":"CZ-6A DEB","OBJECT_ID":"2024-140ER","EPOCH":"2026-03-09T13:51:38.362176","MEAN_MOTION":14.64090932,"ECCENTRICITY":0.0085474,"INCLINATION":89.0426,"RA_OF_ASC_NODE":285.1948,"ARG_OF_PERICENTER":234.2906,"MEAN_ANOMALY":125.0335,"EPHEMERIS_TYPE":0,"CLASSIFICATION_TYPE":"U","NORAD_CAT_ID":60766,"ELEMENT_SET_NO":999,"REV_AT_EPOCH":8366,"BSTAR":0.0014344,"MEAN_MOTION_DOT":7.961e-5,"MEAN_MOTION_DDOT":0}]
